{"epoch":1784799577,"count":18318,"objects":[{"id":"62711","name":"LEMUR 2 ROUNDTRIPPER","type":"PAYLOAD","l1":"1 62711U 25009DG  26203.68615043  .00008183  00000-0  59141-3 0  9992","l2":"2 62711  97.7239 286.3251 0004314  49.3473 310.8127 15.04310860 82960"},{"id":"62712","name":"LEMUR 2 MYNAMEISJEFF","type":"PAYLOAD","l1":"1 62712U 25009DH  26203.48512786  .00008566  00000-0  61900-3 0  9992","l2":"2 62712  97.7284 286.5267 0004318  82.8993 277.2724 15.04300993 82935"},{"id":"63246","name":"LEMUR 2 LEIA-PHILIP","type":"PAYLOAD","l1":"1 63246U 25052AN  26203.68778507  .00000758  00000-0  70138-4 0  9999","l2":"2 63246  97.6785  95.0351 0005090 104.2609 255.9179 14.97398184 73983"},{"id":"63248","name":"LEMUR 2 LIA-MARTIN","type":"PAYLOAD","l1":"1 63248U 25052AQ  26203.27831773  .00003286  00000-0  28273-3 0  9992","l2":"2 63248  97.6844  95.1638 0004750  72.6220 287.5521 14.98060500 73935"},{"id":"63259","name":"LEMUR 2 DELOITTE-1","type":"PAYLOAD","l1":"1 63259U 25052BB  26203.92797230  .00003870  00000-0  33410-3 0  9993","l2":"2 63259  97.6886  96.1336 0002517  54.3603 305.7853 14.97828481 74043"},{"id":"63261","name":"LEMUR 2 EMERSONROSE","type":"PAYLOAD","l1":"1 63261U 25052BD  26203.93437533  .00003638  00000-0  30243-3 0  9997","l2":"2 63261  97.6884  96.7710 0002239  41.2716 318.8676 14.99335715 74095"},{"id":"63262","name":"LEMUR 2 MARACHE-FRAN","type":"PAYLOAD","l1":"1 63262U 25052BE  26203.68506429  .00003943  00000-0  31877-3 0  9994","l2":"2 63262  97.6810  96.8982 0006116 223.0553 137.0193 15.00352389 74087"},{"id":"63264","name":"LEMUR 2 THEFALCONER","type":"PAYLOAD","l1":"1 63264U 25052BG  26203.29145350  .00003077  00000-0  26834-3 0  9990","l2":"2 63264  97.6807  95.0892 0000967 205.9281 154.1893 14.97587786 73948"},{"id":"63351","name":"LEMUR 2 UNTITLED-SC","type":"PAYLOAD","l1":"1 63351U 25061A   26203.92043416  .00003268  00000-0  18451-3 0  9995","l2":"2 63351  97.5660 179.0313 0019934 137.6189 222.6586 15.13683344 72994"},{"id":"63352","name":"LEMUR 2 ESPERANZA","type":"PAYLOAD","l1":"1 63352U 25061B   26203.89522782  .00003464  00000-0  19479-3 0  9999","l2":"2 63352  97.5667 179.1083 0019556 137.0188 223.2575 15.13788423 72999"},{"id":"63353","name":"LEMUR 2 KREMPEL-BRO2","type":"PAYLOAD","l1":"1 63353U 25061C   26203.84594392  .00003439  00000-0  19103-3 0  9997","l2":"2 63353  97.5713 179.6381 0020635 130.2151 230.0890 15.14217263 73002"},{"id":"63354","name":"LEMUR 2 THERMORAPTOR","type":"PAYLOAD","l1":"1 63354U 25061D   26203.89216254  .00003826  00000-0  21164-3 0  9991","l2":"2 63354  97.5719 179.7666 0020375 129.0530 231.2519 15.14300300 73011"},{"id":"63355","name":"LEMUR 2 NEUROSPICY","type":"PAYLOAD","l1":"1 63355U 25061E   26203.92714826  .00003469  00000-0  19179-3 0  9990","l2":"2 63355  97.5645 179.4000 0018216 131.8778 228.4012 15.14419013 73024"},{"id":"63356","name":"LEMUR 2 TILLINFINITY","type":"PAYLOAD","l1":"1 63356U 25061F   26203.88258508  .00004666  00000-0  25228-3 0  9998","l2":"2 63356  97.5632 179.6712 0019614 121.1672 239.1486 15.15007927 73045"},{"id":"63357","name":"LEMUR 2 KREMPEL-BRO1","type":"PAYLOAD","l1":"1 63357U 25061G   26203.72850690  .00003314  00000-0  18122-3 0  9996","l2":"2 63357  97.5632 179.4240 0020259 122.9596 237.3587 15.14808413 73018"},{"id":"63358","name":"LEMUR 2 LANGER2SPACE","type":"PAYLOAD","l1":"1 63358U 25061H   26203.89429564  .00003665  00000-0  20196-3 0  9990","l2":"2 63358  97.5638 179.3885 0018095 130.2936 229.9881 15.14503456 73028"},{"id":"63395","name":"LEMUR 2 BALTO","type":"PAYLOAD","l1":"1 63395U 25052BH  26203.66915470  .00004096  00000-0  33052-3 0  9996","l2":"2 63395  97.6917  96.8811 0004997 294.8468  65.2236 15.00408258 74086"},{"id":"64561","name":"LEMUR 2 KRISH","type":"PAYLOAD","l1":"1 64561U 25135AK  26203.58247404  .00004415  00000-0  39383-3 0  9998","l2":"2 64561  97.7759 318.2257 0001225 110.9382 249.1970 14.96488813 59211"},{"id":"64565","name":"LEMUR 2 HUBBLE-4","type":"PAYLOAD","l1":"1 64565U 25135AP  26203.77800597  .00001056  00000-0  10518-3 0  9998","l2":"2 64565  97.7723 317.2747 0003234 144.7931 215.3503 14.93699280 59188"},{"id":"64586","name":"LEMUR 2 SEJONG-2","type":"PAYLOAD","l1":"1 64586U 25135BL  26203.93543332  .00005781  00000-0  50770-3 0  9993","l2":"2 64586  97.7711 318.7221 0004424 183.5535 176.5656 14.96962712 59299"},{"id":"64840","name":"LEMUR 2 HUBBLE-5","type":"PAYLOAD","l1":"1 64840U 25135BT  26203.78417040  .00001215  00000-0  11871-3 0  9992","l2":"2 64840  97.7742 317.9580 0004944 205.3244 154.7735 14.94226654 59227"},{"id":"64841","name":"LEMUR 2 KARENDARRELL","type":"PAYLOAD","l1":"1 64841U 25135BU  26203.79849381  .00007940  00000-0  63228-3 0  9995","l2":"2 64841  97.7721 319.9655 0013015  81.7245 278.5453 15.00577316 59354"},{"id":"65403","name":"LEMUR-2-LUCILLE-ROSE","type":"PAYLOAD","l1":"1 65403U 25135BV  26203.77203599  .00007551  00000-0  60148-3 0  9999","l2":"2 65403  97.7688 319.9724 0015582 166.4570 193.7074 15.00558075 53971"},{"id":"66295","name":"LEMUR 2 AFFIE-WAUWIE","type":"PAYLOAD","l1":"1 66295U 25248C   26203.62459171  .00021917  00000-0  78378-3 0  9993","l2":"2 66295  45.3913 282.7928 0009297 290.1345  69.8544 15.28478624 40012"},{"id":"66678","name":"OTTER SDM","type":"PAYLOAD","l1":"1 66678U 25276N   26203.66756174  .00006338  00000-0  29630-3 0  9993","l2":"2 66678  97.4195 276.5607 0004856 220.4782 139.6093 15.20118190 35806"},{"id":"66686","name":"LEMUR-2-STAS-GORBUK","type":"PAYLOAD","l1":"1 66686U 25276W   26203.16421229  .00004820  00000-0  22883-3 0  9994","l2":"2 66686  97.4227 276.1161 0004147 216.7749 143.3202 15.19706170 35720"},{"id":"66768","name":"LEMUR-2-TEODOR","type":"PAYLOAD","l1":"1 66768U 25276DG  26203.43838479  .00005433  00000-0  24529-3 0  9994","l2":"2 66768  97.4133 276.6672 0002083  83.4185 276.7288 15.21390266 35801"},{"id":"66776","name":"LEMUR-2-LAILA","type":"PAYLOAD","l1":"1 66776U 25276DQ  26203.20982481  .00005780  00000-0  25905-3 0  9995","l2":"2 66776  97.4156 276.5851 0002792  84.3231 275.8324 15.21615295 35771"},{"id":"66781","name":"LEMUR-2-CELIJO-SB-PK","type":"PAYLOAD","l1":"1 66781U 25276DW  26203.65468491  .00006159  00000-0  49505-3 0  9993","l2":"2 66781  97.5180 273.2602 0006576  46.3519 313.8250 15.00342762 27948"}]}